{"type": "FeatureCollection", "features": [ {"type": "Feature", "properties": {"norad_id": 29973, "name": "FENGYUN 1C DEB", "group": "fengyun-1c-debris", "lat": 10.406203171814417, "lon": 171.36534347475336, "alt_km": 834.4679914787339, "timestamp": "2025-12-15T07:02:37.889161+00:00", "meta": {"OBJECT_NAME": "FENGYUN 1C DEB", "OBJECT_ID": "1999-025KX", "EPOCH": "2025-12-14T22:01:21.576576", "MEAN_MOTION": 14.06540769, "ECCENTRICITY": 0.00593403, "INCLINATION": 98.8426, "RA_OF_ASC_NODE": 349.3599, "ARG_OF_PERICENTER": 142.8674, "MEAN_ANOMALY": 283.9253, "EPHEMERIS_TYPE": 0, "CLASSIFICATION_TYPE": "U", "NORAD_CAT_ID": 29973, "ELEMENT_SET_NO": 999, "REV_AT_EPOCH": 96749, "BSTAR": 0.00055341112, "MEAN_MOTION_DOT": 8.88e-06, "MEAN_MOTION_DDOT": 0}, "tle": {"line1": "1 29973U 99025KX  25348.91761084  .00000888  00000+0  55341-3 0  9997", "line2": "2 29973  98.8426 349.3599 0059340 142.8674 283.9253 14.06540769967493"}}, "geometry": {"type": "Point", "coordinates": [171.36534347475336, 10.406203171814417]}}, {"type": "Feature", "properties": {"norad_id": 29974, "name": "FENGYUN 1C DEB", "group": "fengyun-1c-debris", "lat": 73.04759231934625, "lon": -75.63023540602899, "alt_km": 806.3817211247388, "timestamp": "2025-12-15T07:02:37.889183+00:00", "meta": {"OBJECT_NAME": "FENGYUN 1C DEB", "OBJECT_ID": "1999-025KY", "EPOCH": "2025-12-14T17:41:37.467744", "MEAN_MOTION": 14.14858556, "ECCENTRICITY": 0.0046647, "INCLINATION": 98.8941, "RA_OF_ASC_NODE": 72.9045, "ARG_OF_PERICENTER": 76.5493, "MEAN_ANOMALY": 75.9476, "EPHEMERIS_TYPE": 0, "CLASSIFICATION_TYPE": "U", "NORAD_CAT_ID": 29974, "ELEMENT_SET_NO": 999, "REV_AT_EPOCH": 96953, "BSTAR": 0.001124218, "MEAN_MOTION_DOT": 2.149e-05, "MEAN_MOTION_DDOT": 0}, "tle": {"line1": "1 29974U 99025KY  25348.73723921  .00002149  00000+0  11242-2 0  9999", "line2": "2 29974  98.8941  72.9045 0046647  76.5493  75.9476 14.14858556969537"}}, "geometry": {"type": "Point", "coordinates": [-75.63023540602899, 73.04759231934625]}}, {"type": "Feature", "properties": {"norad_id": 29975, "name": "FENGYUN 1C DEB", "group": "fengyun-1c-debris", "lat": -53.748925633067614, "lon": 43.37209184398608, "alt_km": 867.4913562255806, "timestamp": "2025-12-15T07:02:37.889195+00:00", "meta": {"OBJECT_NAME": "FENGYUN 1C DEB", "OBJECT_ID": "1999-025KZ", "EPOCH": "2025-12-14T21:50:44.397312", "MEAN_MOTION": 13.98026015, "ECCENTRICITY": 0.0113435, "INCLINATION": 99.3392, "RA_OF_ASC_NODE": 30.0132, "ARG_OF_PERICENTER": 7.837, "MEAN_ANOMALY": 170.708, "EPHEMERIS_TYPE": 0, "CLASSIFICATION_TYPE": "U", "NORAD_CAT_ID": 29975, "ELEMENT_SET_NO": 999, "REV_AT_EPOCH": 96467, "BSTAR": 5.4567848e-05, "MEAN_MOTION_DOT": 3.5e-07, "MEAN_MOTION_DDOT": 0}, "tle": {"line1": "1 29975U 99025KZ  25348.91023608  .00000035  00000+0  54568-4 0  9997", "line2": "2 29975  99.3392  30.0132 0113435   7.8370 170.7080 13.98026015964670"}}, "geometry": {"type": "Point", "coordinates": [43.37209184398608, -53.748925633067614]}}, {"type": "Feature", "properties": {"norad_id": 29976, "name": "FENGYUN 1C DEB", "group": "fengyun-1c-debris", "lat": 58.04622330266962, "lon": -178.88659811828532, "alt_km": 962.0837325646098, "timestamp": "2025-12-15T07:02:37.889206+00:00", "meta": {"OBJECT_NAME": "FENGYUN 1C DEB", "OBJECT_ID": "1999-025LA", "EPOCH": "2025-12-14T22:11:23.830368", "MEAN_MOTION": 13.98110685, "ECCENTRICITY": 0.02674322, "INCLINATION": 98.918, "RA_OF_ASC_NODE": 346.1746, "ARG_OF_PERICENTER": 233.4565, "MEAN_ANOMALY": 194.3764, "EPHEMERIS_TYPE": 0, "CLASSIFICATION_TYPE": "U", "NORAD_CAT_ID": 29976, "ELEMENT_SET_NO": 999, "REV_AT_EPOCH": 96367, "BSTAR": 0.00031680743, "MEAN_MOTION_DOT": 5.66e-06, "MEAN_MOTION_DDOT": 0}, "tle": {"line1": "1 29976U 99025LA  25348.92458137  .00000566  00000+0  31681-3 0  9997", "line2": "2 29976  98.9180 346.1746 0267432 233.4565 194.3764 13.98110685963670"}}, "geometry": {"type": "Point", "coordinates": [-178.88659811828532, 58.04622330266962]}}, {"type": "Feature", "properties": {"norad_id": 29977, "name": "FENGYUN 1C DEB", "group": "fengyun-1c-debris", "lat": 60.7990443440323, "lon": 46.478048960229636, "alt_km": 931.4967761534626, "timestamp": "2025-12-15T07:02:37.889217+00:00", "meta": {"OBJECT_NAME": "FENGYUN 1C DEB", "OBJECT_ID": "1999-025LB", "EPOCH": "2025-12-14T13:31:26.111424", "MEAN_MOTION": 14.05095936, "ECCENTRICITY": 0.01283507, "INCLINATION": 98.397, "RA_OF_ASC_NODE": 210.4778, "ARG_OF_PERICENTER": 251.7609, "MEAN_ANOMALY": 136.8503, "EPHEMERIS_TYPE": 0, "CLASSIFICATION_TYPE": "U", "NORAD_CAT_ID": 29977, "ELEMENT_SET_NO": 999, "REV_AT_EPOCH": 96386, "BSTAR": 0.0014434114, "MEAN_MOTION_DOT": 2.466e-05, "MEAN_MOTION_DDOT": 0}, "tle": {"line1": "1 29977U 99025LB  25348.56349666  .00002466  00000+0  14434-2 0  9991", "line2": "2 29977  98.3970 210.4778 0128350 251.7609 136.8503 14.05095936963860"}}, "geometry": {"type": "Point", "coordinates": [46.478048960229636, 60.7990443440323]}}, {"type": "Feature", "properties": {"norad_id": 29978, "name": "FENGYUN 1C DEB", "group": "fengyun-1c-debris", "lat": 59.27990659685443, "lon": -124.72365020732498, "alt_km": 886.4780798995025, "timestamp": "2025-12-15T07:02:37.889227+00:00", "meta": {"OBJECT_NAME": "FENGYUN 1C DEB", "OBJECT_ID": "1999-025LC", "EPOCH": "2025-12-14T17:17:07.584288", "MEAN_MOTION": 13.9590705, "ECCENTRICITY": 0.00766355, "INCLINATION": 99.0611, "RA_OF_ASC_NODE": 39.1349, "ARG_OF_PERICENTER": 46.9353, "MEAN_ANOMALY": 72.3959, "EPHEMERIS_TYPE": 0, "CLASSIFICATION_TYPE": "U", "NORAD_CAT_ID": 29978, "ELEMENT_SET_NO": 999, "REV_AT_EPOCH": 96344, "BSTAR": 6.6624513e-05, "MEAN_MOTION_DOT": 5e-07, "MEAN_MOTION_DDOT": 0}, "tle": {"line1": "1 29978U 99025LC  25348.72022667  .00000050  00000+0  66625-4 0  9997", "line2": "2 29978  99.0611  39.1349 0076635  46.9353  72.3959 13.95907050963449"}}, "geometry": {"type": "Point", "coordinates": [-124.72365020732498, 59.27990659685443]}}, {"type": "Feature", "properties": {"norad_id": 29979, "name": "FENGYUN 1C DEB", "group": "fengyun-1c-debris", "lat": 47.936871115563726, "lon": 2.9989202197817657, "alt_km": 822.4834413750305, "timestamp": "2025-12-15T07:02:37.889238+00:00", "meta": {"OBJECT_NAME": "FENGYUN 1C DEB", "OBJECT_ID": "1999-025LD", "EPOCH": "2025-12-14T21:17:21.070752", "MEAN_MOTION": 14.259678, "ECCENTRICITY": 0.01076734, "INCLINATION": 98.3705, "RA_OF_ASC_NODE": 12.0009, "ARG_OF_PERICENTER": 156.66, "MEAN_ANOMALY": 327.9382, "EPHEMERIS_TYPE": 0, "CLASSIFICATION_TYPE": "U", "NORAD_CAT_ID": 29979, "ELEMENT_SET_NO": 999, "REV_AT_EPOCH": 98104, "BSTAR": 0.00045222835, "MEAN_MOTION_DOT": 1.106e-05, "MEAN_MOTION_DDOT": 0}, "tle": {"line1": "1 29979U 99025LD  25348.88704943  .00001106  00000+0  45223-3 0  9992", "line2": "2 29979  98.3705  12.0009 0107673 156.6600 327.9382 14.25967800981048"}}, "geometry": {"type": "Point", "coordinates": [2.9989202197817657, 47.936871115563726]}}, {"type": "Feature", "properties": {"norad_id": 29980, "name": "FENGYUN 1C DEB", "group": "fengyun-1c-debris", "lat": 21.70310564073187, "lon": -18.257685626334077, "alt_km": 863.0557581886715, "timestamp": "2025-12-15T07:02:37.889248+00:00", "meta": {"OBJECT_NAME": "FENGYUN 1C DEB", "OBJECT_ID": "1999-025LE", "EPOCH": "2025-12-14T22:20:52.234368", "MEAN_MOTION": 14.06317057, "ECCENTRICITY": 0.00869508, "INCLINATION": 98.5514, "RA_OF_ASC_NODE": 157.9667, "ARG_OF_PERICENTER": 241.5552, "MEAN_ANOMALY": 243.9893, "EPHEMERIS_TYPE": 0, "CLASSIFICATION_TYPE": "U", "NORAD_CAT_ID": 29980, "ELEMENT_SET_NO": 999, "REV_AT_EPOCH": 97023, "BSTAR": 0.00034098664, "MEAN_MOTION_DOT": 5.4e-06, "MEAN_MOTION_DDOT": 0}, "tle": {"line1": "1 29980U 99025LE  25348.93116012  .00000540  00000+0  34099-3 0  9994", "line2": "2 29980  98.5514 157.9667 0086950 241.5552 243.9893 14.06317057970238"}}, "geometry": {"type": "Point", "coordinates": [-18.257685626334077, 21.70310564073187]}}, {"type": "Feature", "properties": {"norad_id": 29982, "name": "FENGYUN 1C DEB", "group": "fengyun-1c-debris", "lat": 41.07284609734884, "lon": 162.63485783576638, "alt_km": 711.5705869929343, "timestamp": "2025-12-15T07:02:37.889259+00:00", "meta": {"OBJECT_NAME": "FENGYUN 1C DEB", "OBJECT_ID": "1999-025LG", "EPOCH": "2025-12-14T23:22:35.469696", "MEAN_MOTION": 14.66899142, "ECCENTRICITY": 0.01218012, "INCLINATION": 99.4015, "RA_OF_ASC_NODE": 170.5714, "ARG_OF_PERICENTER": 281.4701, "MEAN_ANOMALY": 233.0615, "EPHEMERIS_TYPE": 0, "CLASSIFICATION_TYPE": "U", "NORAD_CAT_ID": 29982, "ELEMENT_SET_NO": 999, "REV_AT_EPOCH": 316, "BSTAR": 0.00046848708, "MEAN_MOTION_DOT": 2.855e-05, "MEAN_MOTION_DDOT": 0}, "tle": {"line1": "1 29982U 99025LG  25348.97402164  .00002855  00000+0  46849-3 0  9993", "line2": "2 29982  99.4015 170.5714 0121801 281.4701 233.0615 14.66899142  3161"}}, "geometry": {"type": "Point", "coordinates": [162.63485783576638, 41.07284609734884]}}, {"type": "Feature", "properties": {"norad_id": 29985, "name": "FENGYUN 1C DEB", "group": "fengyun-1c-debris", "lat": 44.41044420119715, "lon": -167.0885841556691, "alt_km": 846.3515231901174, "timestamp": "2025-12-15T07:02:37.889269+00:00", "meta": {"OBJECT_NAME": "FENGYUN 1C DEB", "OBJECT_ID": "1999-025LK", "EPOCH": "2025-12-14T22:12:11.327040", "MEAN_MOTION": 14.10324224, "ECCENTRICITY": 0.00282126, "INCLINATION": 98.7106, "RA_OF_ASC_NODE": 3.917, "ARG_OF_PERICENTER": 202.7085, "MEAN_ANOMALY": 223.2453, "EPHEMERIS_TYPE": 0, "CLASSIFICATION_TYPE": "U", "NORAD_CAT_ID": 29985, "ELEMENT_SET_NO": 999, "REV_AT_EPOCH": 97379, "BSTAR": 9.2823472e-05, "MEAN_MOTION_DOT": 1.23e-06, "MEAN_MOTION_DDOT": 0}, "tle": {"line1": "1 29985U 99025LK  25348.92513110  .00000123  00000+0  92823-4 0  9995", "line2": "2 29985  98.7106   3.9170 0028212 202.7085 223.2453 14.10324224973794"}}, "geometry": {"type": "Point", "coordinates": [-167.0885841556691, 44.41044420119715]}}]}